FLOCK 4BE-27            
1 60513U 24149AX  26032.76771533  .00010297  00000+0  33852-3 0  9999
2 60513  97.3933 114.7659 0005233  74.0080 286.1737 15.31719428 81392
FLOCK 4BE-9             
1 60514U 24149AY  26032.75217227  .00014725  00000+0  41871-3 0  9994
2 60514  97.3900 116.1135 0003884  80.1436 280.0247 15.36244070 81496
FLOCK 4BE-6             
1 60516U 24149BA  26032.75397343  .00014468  00000+0  42350-3 0  9991
2 60516  97.3901 115.6911 0004603  72.8477 287.3270 15.35336355 81468
FLOCK 4BE-14            
1 60517U 24149BB  26032.77625131  .00014924  00000+0  42329-3 0  9996
2 60517  97.3816 115.7729 0005555  71.4376 288.7471 15.36313122 81503
FLOCK 4BE-1             
1 60518U 24149BC  26032.85090901  .00017395  00000+0  47550-3 0  9993
2 60518  97.3887 116.6901 0005156  66.2264 293.9521 15.37432498 81546
FLOCK 4BE-28            
1 60519U 24149BD  26032.79196431  .00019465  00000+0  50159-3 0  9991
2 60519  97.3854 116.9767 0005390  63.3190 296.8607 15.39230525 81579
FLOCK 4BE-35            
1 60558U 24149CU  26032.78447826  .00062051  00000+0  16822-2 0  9997
2 60558  97.3867 115.6903 0003660  46.9882 313.1668 15.37412644 81478
FLOCK 4BE-5             
1 60559U 24149CV  26032.77121413  .00017024  00000+0  49604-3 0  9993
2 60559  97.3948 115.8797 0004334  68.3288 291.8417 15.35445112 81466
FLOCK 4BE-12            
1 60560U 24149CW  26032.73655976  .00067620  00000+0  17056-2 0  9999
2 60560  97.3843 116.2414 0004712  48.7773 311.3878 15.39604263 81528
FLOCK 4BE-3             
1 60561U 24149CX  26032.73820987  .00015560  00000+0  43479-3 0  9991
2 60561  97.3813 115.7688 0005224  64.2948 295.8835 15.36772042 81504
FLOCK 4BE-19            
1 60563U 24149CZ  26032.72720794  .00017605  00000+0  46210-3 0  9995
2 60563  97.3846 116.7321 0005102  67.6909 292.4877 15.38686046 81550
PELICAN-3009            
1 62631U 25009Y   26032.80048993  .00072099  00000+0  17827-2 0  9991
2 62631  97.4078 122.6616 0002327 309.5457  50.5583 15.40201402 58712
PELICAN-300A            
1 65315U 25188A   26032.17290942  .00002443  00000+0  62008-4 0  9993
2 65315  97.2314 110.1297 0007756 194.0687 166.0345 15.40618931 24378
PELICAN-300B            
1 65316U 25188B   26032.77290647  .00003261  00000+0  82108-4 0  9994
2 65316  97.2398 110.7826 0008901 177.0707 183.0593 15.40600909 24462
