[{"OBJECT_NAME":"FLOCK 4BE-27","OBJECT_ID":"2024-149AX","EPOCH":"2026-02-01T18:25:30.604512","MEAN_MOTION":15.31719428,"ECCENTRICITY":0.00052337,"INCLINATION":97.3933,"RA_OF_ASC_NODE":114.7659,"ARG_OF_PERICENTER":74.008,"MEAN_ANOMALY":286.1737,"EPHEMERIS_TYPE":0,"CLASSIFICATION_TYPE":"U","NORAD_CAT_ID":60513,"ELEMENT_SET_NO":999,"REV_AT_EPOCH":8139,"BSTAR":0.00033851556,"MEAN_MOTION_DOT":0.00010297,"MEAN_MOTION_DDOT":0},{"OBJECT_NAME":"FLOCK 4BE-9","OBJECT_ID":"2024-149AY","EPOCH":"2026-02-01T18:03:07.684128","MEAN_MOTION":15.3624407,"ECCENTRICITY":0.00038841,"INCLINATION":97.39,"RA_OF_ASC_NODE":116.1135,"ARG_OF_PERICENTER":80.1436,"MEAN_ANOMALY":280.0247,"EPHEMERIS_TYPE":0,"CLASSIFICATION_TYPE":"U","NORAD_CAT_ID":60514,"ELEMENT_SET_NO":999,"REV_AT_EPOCH":8149,"BSTAR":0.00041871445,"MEAN_MOTION_DOT":0.00014725,"MEAN_MOTION_DDOT":0},{"OBJECT_NAME":"FLOCK 4BE-6","OBJECT_ID":"2024-149BA","EPOCH":"2026-02-01T18:05:43.304352","MEAN_MOTION":15.35336355,"ECCENTRICITY":0.00046034,"INCLINATION":97.3901,"RA_OF_ASC_NODE":115.6911,"ARG_OF_PERICENTER":72.8477,"MEAN_ANOMALY":287.327,"EPHEMERIS_TYPE":0,"CLASSIFICATION_TYPE":"U","NORAD_CAT_ID":60516,"ELEMENT_SET_NO":999,"REV_AT_EPOCH":8146,"BSTAR":0.00042349905,"MEAN_MOTION_DOT":0.00014468,"MEAN_MOTION_DDOT":0},{"OBJECT_NAME":"FLOCK 4BE-14","OBJECT_ID":"2024-149BB","EPOCH":"2026-02-01T18:37:48.113184","MEAN_MOTION":15.36313122,"ECCENTRICITY":0.00055554,"INCLINATION":97.3816,"RA_OF_ASC_NODE":115.7729,"ARG_OF_PERICENTER":71.4376,"MEAN_ANOMALY":288.7471,"EPHEMERIS_TYPE":0,"CLASSIFICATION_TYPE":"U","NORAD_CAT_ID":60517,"ELEMENT_SET_NO":999,"REV_AT_EPOCH":8150,"BSTAR":0.00042329241,"MEAN_MOTION_DOT":0.00014924,"MEAN_MOTION_DDOT":0},{"OBJECT_NAME":"FLOCK 4BE-1","OBJECT_ID":"2024-149BC","EPOCH":"2026-02-01T20:25:18.538464","MEAN_MOTION":15.37432498,"ECCENTRICITY":0.00051561,"INCLINATION":97.3887,"RA_OF_ASC_NODE":116.6901,"ARG_OF_PERICENTER":66.2264,"MEAN_ANOMALY":293.9521,"EPHEMERIS_TYPE":0,"CLASSIFICATION_TYPE":"U","NORAD_CAT_ID":60518,"ELEMENT_SET_NO":999,"REV_AT_EPOCH":8154,"BSTAR":0.00047550399,"MEAN_MOTION_DOT":0.00017395,"MEAN_MOTION_DDOT":0},{"OBJECT_NAME":"FLOCK 4BE-28","OBJECT_ID":"2024-149BD","EPOCH":"2026-02-01T19:00:25.716384","MEAN_MOTION":15.39230525,"ECCENTRICITY":0.00053905,"INCLINATION":97.3854,"RA_OF_ASC_NODE":116.9767,"ARG_OF_PERICENTER":63.319,"MEAN_ANOMALY":296.8607,"EPHEMERIS_TYPE":0,"CLASSIFICATION_TYPE":"U","NORAD_CAT_ID":60519,"ELEMENT_SET_NO":999,"REV_AT_EPOCH":8157,"BSTAR":0.00050159128,"MEAN_MOTION_DOT":0.00019465,"MEAN_MOTION_DDOT":0},{"OBJECT_NAME":"FLOCK 4BE-35","OBJECT_ID":"2024-149CU","EPOCH":"2026-02-01T18:49:38.921664","MEAN_MOTION":15.37412644,"ECCENTRICITY":0.00036605,"INCLINATION":97.3867,"RA_OF_ASC_NODE":115.6903,"ARG_OF_PERICENTER":46.9882,"MEAN_ANOMALY":313.1668,"EPHEMERIS_TYPE":0,"CLASSIFICATION_TYPE":"U","NORAD_CAT_ID":60558,"ELEMENT_SET_NO":999,"REV_AT_EPOCH":8147,"BSTAR":0.0016821518,"MEAN_MOTION_DOT":0.00062051,"MEAN_MOTION_DDOT":0},{"OBJECT_NAME":"FLOCK 4BE-5","OBJECT_ID":"2024-149CV","EPOCH":"2026-02-01T18:30:32.900832","MEAN_MOTION":15.35445112,"ECCENTRICITY":0.00043344,"INCLINATION":97.3948,"RA_OF_ASC_NODE":115.8797,"ARG_OF_PERICENTER":68.3288,"MEAN_ANOMALY":291.8417,"EPHEMERIS_TYPE":0,"CLASSIFICATION_TYPE":"U","NORAD_CAT_ID":60559,"ELEMENT_SET_NO":999,"REV_AT_EPOCH":8146,"BSTAR":0.00049604091,"MEAN_MOTION_DOT":0.00017024,"MEAN_MOTION_DDOT":0},{"OBJECT_NAME":"FLOCK 4BE-12","OBJECT_ID":"2024-149CW","EPOCH":"2026-02-01T17:40:38.763264","MEAN_MOTION":15.39604263,"ECCENTRICITY":0.00047121,"INCLINATION":97.3843,"RA_OF_ASC_NODE":116.2414,"ARG_OF_PERICENTER":48.7773,"MEAN_ANOMALY":311.3878,"EPHEMERIS_TYPE":0,"CLASSIFICATION_TYPE":"U","NORAD_CAT_ID":60560,"ELEMENT_SET_NO":999,"REV_AT_EPOCH":8152,"BSTAR":0.0017056361,"MEAN_MOTION_DOT":0.0006762,"MEAN_MOTION_DDOT":0},{"OBJECT_NAME":"FLOCK 4BE-3","OBJECT_ID":"2024-149CX","EPOCH":"2026-02-01T17:43:01.332768","MEAN_MOTION":15.36772042,"ECCENTRICITY":0.00052245,"INCLINATION":97.3813,"RA_OF_ASC_NODE":115.7688,"ARG_OF_PERICENTER":64.2948,"MEAN_ANOMALY":295.8835,"EPHEMERIS_TYPE":0,"CLASSIFICATION_TYPE":"U","NORAD_CAT_ID":60561,"ELEMENT_SET_NO":999,"REV_AT_EPOCH":8150,"BSTAR":0.00043479242,"MEAN_MOTION_DOT":0.0001556,"MEAN_MOTION_DDOT":0},{"OBJECT_NAME":"FLOCK 4BE-19","OBJECT_ID":"2024-149CZ","EPOCH":"2026-02-01T17:27:10.766016","MEAN_MOTION":15.38686046,"ECCENTRICITY":0.00051021,"INCLINATION":97.3846,"RA_OF_ASC_NODE":116.7321,"ARG_OF_PERICENTER":67.6909,"MEAN_ANOMALY":292.4877,"EPHEMERIS_TYPE":0,"CLASSIFICATION_TYPE":"U","NORAD_CAT_ID":60563,"ELEMENT_SET_NO":999,"REV_AT_EPOCH":8155,"BSTAR":0.00046210493,"MEAN_MOTION_DOT":0.00017605,"MEAN_MOTION_DDOT":0},{"OBJECT_NAME":"PELICAN-3009","OBJECT_ID":"2025-009Y","EPOCH":"2026-02-01T19:12:42.329952","MEAN_MOTION":15.40201402,"ECCENTRICITY":0.0002327,"INCLINATION":97.4078,"RA_OF_ASC_NODE":122.6616,"ARG_OF_PERICENTER":309.5457,"MEAN_ANOMALY":50.5583,"EPHEMERIS_TYPE":0,"CLASSIFICATION_TYPE":"U","NORAD_CAT_ID":62631,"ELEMENT_SET_NO":999,"REV_AT_EPOCH":5871,"BSTAR":0.0017826761,"MEAN_MOTION_DOT":0.00072099,"MEAN_MOTION_DDOT":0},{"OBJECT_NAME":"PELICAN-300A","OBJECT_ID":"2025-188A","EPOCH":"2026-02-01T04:08:59.373888","MEAN_MOTION":15.40618931,"ECCENTRICITY":0.00077565,"INCLINATION":97.2314,"RA_OF_ASC_NODE":110.1297,"ARG_OF_PERICENTER":194.0687,"MEAN_ANOMALY":166.0345,"EPHEMERIS_TYPE":0,"CLASSIFICATION_TYPE":"U","NORAD_CAT_ID":65315,"ELEMENT_SET_NO":999,"REV_AT_EPOCH":2437,"BSTAR":6.2007991e-5,"MEAN_MOTION_DOT":2.443e-5,"MEAN_MOTION_DDOT":0},{"OBJECT_NAME":"PELICAN-300B","OBJECT_ID":"2025-188B","EPOCH":"2026-02-01T18:32:59.119008","MEAN_MOTION":15.40600909,"ECCENTRICITY":0.00089017,"INCLINATION":97.2398,"RA_OF_ASC_NODE":110.7826,"ARG_OF_PERICENTER":177.0707,"MEAN_ANOMALY":183.0593,"EPHEMERIS_TYPE":0,"CLASSIFICATION_TYPE":"U","NORAD_CAT_ID":65316,"ELEMENT_SET_NO":999,"REV_AT_EPOCH":2446,"BSTAR":8.210764e-5,"MEAN_MOTION_DOT":3.261e-5,"MEAN_MOTION_DDOT":0}]
